CCSDS_OMM_VERS,COMMENT,CREATION_DATE,ORIGINATOR,OBJECT_NAME,OBJECT_ID,CENTER_NAME,REF_FRAME,TIME_SYSTEM,MEAN_ELEMENT_THEORY,EPOCH,MEAN_MOTION,ECCENTRICITY,INCLINATION,RA_OF_ASC_NODE,ARG_OF_PERICENTER,MEAN_ANOMALY,EPHEMERIS_TYPE,CLASSIFICATION_TYPE,NORAD_CAT_ID,ELEMENT_SET_NO,REV_AT_EPOCH,BSTAR,MEAN_MOTION_DOT,MEAN_MOTION_DDOT,SEMIMAJOR_AXIS,PERIOD,APOAPSIS,PERIAPSIS,OBJECT_TYPE,RCS_SIZE,COUNTRY_CODE,LAUNCH_DATE,SITE,DECAY_DATE,DECAYED,FILE,GP_ID,TLE_LINE0,TLE_LINE1,TLE_LINE2,height_km,latitude,longitude,velocity_kms,id
2.0,GENERATED VIA SPACE-TRACK.ORG API,2022-11-29T20:50:49,18 SPCS,STARLINK-1658,2020-062AV,EARTH,TEME,UTC,SGP4,2022-11-29T10:26:38.053824,15.06400412,0.0001648,53.0555,326.7937,59.4304,300.6847,0,U,46368,999,12429,0.00016425,2.166e-05,0.0,6925.347,95.592,548.354,546.071,PAYLOAD,LARGE,US,2020-09-03,AFETR,,0,3673336,219071027,0 STARLINK-1658,1 46368U 20062AV  22333.43516266  .00002166  00000-0  16425-3 0  9999,2 46368  53.0555 326.7937 0001648  59.4304 300.6847 15.06400412124292,552.4478181797094,-19.306184740608366,-12.424344006163933,7.5857639240121815,5f5a9c1e2fd30c00065e5ec7
2.0,GENERATED VIA SPACE-TRACK.ORG API,2021-11-22T21:46:10,18 SPCS,STARLINK-1662,2020-062AW,EARTH,TEME,UTC,SGP4,2021-11-22T21:04:49.836576,16.42343631,0.0007653,53.0327,135.8665,277.5516,232.2366,0,U,46369,999,6928,0.0001,0.01968245,1.2424e-05,6537.713,87.68,164.581,154.574,PAYLOAD,LARGE,US,2020-09-03,AFETR,2021-11-23,1,3221289,190266505,0 STARLINK-1662,1 46369U 20062AW  21326.87835459  .01968245  12424-4  10000-3 0  9997,2 46369  53.0327 135.8665 0007653 277.5516 232.2366 16.42343631 69280,,,,,5f5a9c1e2fd30c00065e5ec8
2.0,GENERATED VIA SPACE-TRACK.ORG API,2022-11-30T17:18:05,18 SPCS,STARLINK-1722,2020-062AN,EARTH,TEME,UTC,SGP4,2022-11-30T07:04:00.459264,15.06398927,0.0001712,53.0563,297.9383,67.9973,292.1198,0,U,46361,999,12476,7.5311e-05,8.4e-06,0.0,6925.352,95.592,548.402,546.031,PAYLOAD,LARGE,US,2020-09-03,AFETR,,0,3675646,219171712,0 STARLINK-1722,1 46361U 20062AN  22334.29444976  .00000840  00000-0  75311-4 0  9992,2 46361  53.0563 297.9383 0001712  67.9973 292.1198 15.06398927124769,557.729419123586,-30.944255028010105,169.1540011506542,7.581997479630295,5f5a9c1e2fd30c00065e5eca
2.0,GENERATED VIA SPACE-TRACK.ORG API,2022-11-30T14:26:13,18 SPCS,STARLINK-1547,2020-062Y,EARTH,TEME,UTC,SGP4,2022-11-30T07:31:54.921504,15.06404453,0.0001914,53.0559,297.8777,56.909,303.2083,0,U,46347,999,12494,0.0002164,2.943e-05,0.0,6925.335,95.592,548.525,545.874,PAYLOAD,LARGE,US,2020-09-03,AFETR,,0,3674879,219134547,0 STARLINK-1547,1 46347U 20062Y   22334.31383011  .00002943  00000-0  21640-3 0  9992,2 46347  53.0559 297.8777 0001914  56.9090 303.2083 15.06404453124945,564.9458188483586,-48.04595619350839,-145.902121555174,7.5778244560182415,5f5a9c1e2fd30c00065e5ecb
2.0,GENERATED VIA SPACE-TRACK.ORG API,2022-11-30T17:18:05,18 SPCS,STARLINK-1651,2020-062AT,EARTH,TEME,UTC,SGP4,2022-11-30T07:10:40.950912,15.06392053,0.0001618,53.0547,297.9463,59.9875,300.1274,0,U,46366,999,12476,-5.2204e-05,-1.059e-05,0.0,6925.373,95.593,548.358,546.117,PAYLOAD,LARGE,US,2020-09-03,AFETR,,0,3675646,219171962,0 STARLINK-1651,1 46366U 20062AT  22334.29908508 -.00001059  00000-0 -52204-4 0  9994,2 46366  53.0547 297.9463 0001618  59.9875 300.1274 15.06392053124761,551.1476871950117,-11.76405709031986,151.50310922466213,7.5863383765366645,5f5a9c1e2fd30c00065e5ecd
2.0,GENERATED VIA SPACE-TRACK.ORG API,2022-11-30T17:18:05,18 SPCS,STARLINK-1657,2020-062AF,EARTH,TEME,UTC,SGP4,2022-11-30T10:13:08.432256,15.06392256,0.0001863,53.0565,342.3675,52.1363,307.9794,0,U,46354,999,12415,1.2732e-05,-9.2e-07,0.0,6925.372,95.593,548.527,545.947,PAYLOAD,LARGE,US,2020-09-03,AFETR,,0,3675646,219171462,0 STARLINK-1657,1 46354U 20062AF  22334.42579204 -.00000092  00000-0  12732-4 0  9990,2 46354  53.0565 342.3675 0001863  52.1363 307.9794 15.06392256124157,560.0349991912653,-36.02270966493535,-139.52280757138823,7.580540415389208,5f5a9c1e2fd30c00065e5ed0
2.0,GENERATED VIA SPACE-TRACK.ORG API,2022-11-30T14:36:14,18 SPCS,STARLINK-1758,2020-062BH,EARTH,TEME,UTC,SGP4,2022-11-30T09:43:57.023904,15.0638676,0.0001827,53.0554,322.469,48.7299,311.3847,0,U,46380,999,12461,4.3537e-05,3.67e-06,0.0,6925.389,95.593,548.519,545.989,PAYLOAD,LARGE,US,2020-09-03,AFETR,,0,3674951,219136417,0 STARLINK-1758,1 46380U 20062BH  22334.40552111  .00000367  00000-0  43537-4 0  9996,2 46380  53.0554 322.4690 0001827  48.7299 311.3847 15.06386760124611,551.8781673196609,-18.342988508279497,-26.814980306028605,7.586287593656889,5f5a9c1e2fd30c00065e5ed4
2.0,GENERATED VIA SPACE-TRACK.ORG API,2022-11-30T14:36:14,18 SPCS,STARLINK-1742,2020-062BD,EARTH,TEME,UTC,SGP4,2022-11-30T07:21:18.882720,15.06372673,0.0002082,53.0544,297.9101,64.943,295.1775,0,U,46376,999,12494,0.00055662,8.013e-05,0.0,6925.432,95.594,548.739,545.855,PAYLOAD,LARGE,US,2020-09-03,AFETR,,0,3674950,219136680,0 STARLINK-1742,1 46376U 20062BD  22334.30646855  .00008013  00000-0  55662-3 0  9996,2 46376  53.0544 297.9101 0002082  64.9430 295.1775 15.06372673124942,565.4376124336959,-49.63899760116999,-83.85557427692568,7.5776899062658645,5f5a9c1e2fd30c00065e5ed2
2.0,GENERATED VIA SPACE-TRACK.ORG API,2021-10-23T02:56:10,18 SPCS,STARLINK-1756,2020-062BG,EARTH,TEME,UTC,SGP4,2021-10-23T02:41:37.795200,16.42612458,0.0012845,53.0099,178.2269,201.3014,311.4619,0,U,46379,999,6597,0.0011437,0.28456558,1.2234e-05,6536.999,87.665,167.261,150.467,PAYLOAD,LARGE,US,2020-09-03,AFETR,2021-10-23,1,3179069,187912346,0 STARLINK-1756,1 46379U 20062BG  21296.11224300  .28456558  12234-4  11437-2 0  9999,2 46379  53.0099 178.2269 0012845 201.3014 311.4619 16.42612458 65974,,,,,5f5a9c1e2fd30c00065e5ed7
2.0,GENERATED VIA SPACE-TRACK.ORG API,2021-12-04T07:46:10,18 SPCS,STARLINK-1757,2020-062Q,EARTH,TEME,UTC,SGP4,2021-12-04T06:58:45.450048,16.43596696,0.0020743,53.0241,91.6072,161.8695,198.9472,0,U,46339,999,7091,0.0012515,0.48380163,1.2149e-05,6534.389,87.613,169.809,142.7,PAYLOAD,LARGE,US,2020-09-03,AFETR,2021-12-04,1,3232160,191046373,0 STARLINK-1757,1 46339U 20062Q   21338.29080382  .48380163  12149-4  12515-2 0  9994,2 46339  53.0241  91.6072 0020743 161.8695 198.9472 16.43596696 70911,,,,,5f5a9c1e2fd30c00065e5ed6
2.0,GENERATED VIA SPACE-TRACK.ORG API,2022-11-30T17:18:05,18 SPCS,STARLINK-1711,2020-062BB,EARTH,TEME,UTC,SGP4,2022-11-30T05:03:58.073184,15.06387529,0.0001711,53.0557,273.3306,72.3522,287.7654,0,U,46374,999,12510,3.6726e-06,-2.27e-06,0.0,6925.387,95.593,548.437,546.067,PAYLOAD,LARGE,US,2020-09-03,AFETR,,0,3675646,219172714,0 STARLINK-1711,1 46374U 20062BB  22334.21108881 -.00000227  00000-0  36726-5 0  9998,2 46374  53.0557 273.3306 0001711  72.3522 287.7654 15.06387529125100,559.6363449751316,-36.62141192223841,-96.24053437184484,7.581113637158877,5f5a9c1e2fd30c00065e5ed3
2.0,GENERATED VIA SPACE-TRACK.ORG API,2022-11-30T17:18:05,18 SPCS,STARLINK-1661,2020-062AG,EARTH,TEME,UTC,SGP4,2022-11-30T09:35:59.452224,15.06383932,0.0001518,53.0554,342.492,65.3184,294.7963,0,U,46355,999,12415,1.4921e-05,-5.9e-07,0.0,6925.398,95.593,548.314,546.212,PAYLOAD,LARGE,US,2020-09-03,AFETR,,0,3675646,219172712,0 STARLINK-1661,1 46355U 20062AG  22334.39999366 -.00000059  00000-0  14921-4 0  9997,2 46355  53.0554 342.4920 0001518  65.3184 294.7963 15.06383932124156,547.0520459825038,5.565764817351247,11.720588484897716,7.5904228958987305,5f5a9c1e2fd30c00065e5ed5
2.0,GENERATED VIA SPACE-TRACK.ORG API,2022-11-30T17:18:05,18 SPCS,STARLINK-1762,2020-062T,EARTH,TEME,UTC,SGP4,2022-11-30T09:46:36.577056,15.06384055,0.0001816,53.0556,342.463,50.9882,309.1268,0,U,46342,999,12415,4.0466e-05,3.21e-06,0.0,6925.397,95.593,548.52,546.005,PAYLOAD,LARGE,US,2020-09-03,AFETR,,0,3675646,219171959,0 STARLINK-1762,1 46342U 20062T   22334.40736779  .00000321  00000-0  40466-4 0  9996,2 46342  53.0556 342.4630 0001816  50.9882 309.1268 15.06384055124154,554.7576299598586,-25.994520943040886,-13.843586136437791,7.584341742472436,5f5a9c1e2fd30c00065e5ed8
2.0,GENERATED VIA SPACE-TRACK.ORG API,2022-11-30T17:18:05,18 SPCS,STARLINK-1726,2020-062AP,EARTH,TEME,UTC,SGP4,2022-11-30T08:09:03.193056,15.06400021,0.0002153,53.0542,297.7637,42.26,317.8554,0,U,46362,999,12477,2.5639e-06,-2.44e-06,0.0,6925.348,95.592,548.705,545.722,PAYLOAD,LARGE,US,2020-09-03,AFETR,,0,3675646,219171463,0 STARLINK-1726,1 46362U 20062AP  22334.33962029 -.00000244  00000-0  25639-5 0  9990,2 46362  53.0542 297.7637 0002153  42.2600 317.8554 15.06400021124771,552.2717155397222,-20.20704169367602,-53.43828764138573,7.586096920996367,5f5a9c1e2fd30c00065e5edc
2.0,GENERATED VIA SPACE-TRACK.ORG API,2022-11-30T17:18:05,18 SPCS,STARLINK-1713,2020-062AM,EARTH,TEME,UTC,SGP4,2022-11-30T07:47:51.057600,15.06370584,0.0002261,53.0542,297.8272,47.0399,313.078,0,U,46360,999,12477,6.5354e-05,6.91e-06,0.0,6925.439,95.594,548.87,545.738,PAYLOAD,LARGE,US,2020-09-03,AFETR,,0,3675646,219172960,0 STARLINK-1713,1 46360U 20062AM  22334.32489650  .00000691  00000-0  65354-4 0  9993,2 46360  53.0542 297.8272 0002261  47.0399 313.0780 15.06370584124772,549.4907767656141,40.72357414751397,2.6203052690641373,7.593163322841112,5f5a9c1e2fd30c00065e5edb
2.0,GENERATED VIA SPACE-TRACK.ORG API,2022-11-30T17:18:05,18 SPCS,STARLINK-1765,2020-062V,EARTH,TEME,UTC,SGP4,2022-11-30T08:29:38.502240,15.0638977,0.0001636,53.0539,322.7018,69.0297,291.0867,0,U,46344,999,12442,1.2163e-05,-1e-06,0.0,6925.38,95.593,548.378,546.112,PAYLOAD,LARGE,US,2020-09-03,AFETR,,0,3675646,219172958,0 STARLINK-1765,1 46344U 20062V   22334.35391785 -.00000100  00000-0  12163-4 0  9995,2 46344  53.0539 322.7018 0001636  69.0297 291.0867 15.06389770124422,566.1223294660094,-51.320514284996854,-123.34000974089659,7.5772959814362695,5f5a9c1e2fd30c00065e5edd
